{"type":"Feature","id":"620","properties":{"name":"Portugal"},"geometry":{"type":"MultiPolygon","coordinates":[[[[-17.19197191971918,32.86838044505447],[-17.055170551705515,32.816300341440936],[-16.929169291692915,32.84060438979391],[-16.77436774367743,32.77290025509632],[-16.691566915669142,32.75727622401226],[-16.76356763567634,32.71040413076007],[-16.8391683916839,32.64790800642383],[-17.019170191701903,32.66353203750789],[-17.170371703717024,32.72255615493657],[-17.224372243722428,32.76769224473496],[-17.24237242372422,32.80762032417201],[-17.19197191971918,32.86838044505447]]],[[[-8.778687786877867,41.94073449453245],[-8.681486814868151,42.00843862923006],[-8.58788587885877,42.05357471902846],[-8.53748537485373,42.06919875011252],[-8.321483214832142,42.114334839910924],[-8.267482674826738,42.13690288481013],[-8.213482134821334,42.133430877902555],[-8.20268202682027,42.112598836457124],[-8.173881738817386,42.06919875011252],[-8.137881378813773,42.039686691398174],[-8.130681306813074,42.01885464995277],[-8.213482134821334,41.92684646690219],[-8.224282242822426,41.89559840473407],[-8.181081810818114,41.83657428730538],[-8.173881738817386,41.81921425276755],[-8.15228152281523,41.81227023895241],[-8.094680946809461,41.81400624240618],[-7.990279902799017,41.85219831838944],[-7.921879218792185,41.88344638055759],[-7.896678966789665,41.87129435638107],[-7.69147691476914,41.88865439091893],[-7.644676446764464,41.87476636328864],[-7.612276122761216,41.85740632875081],[-7.511475114751136,41.83657428730538],[-7.403474034740327,41.83310228039781],[-7.270272702727027,41.864350342565956],[-7.209072090720895,41.89559840473407],[-7.198271982719831,41.92858247035596],[-7.194671946719467,41.95462252216274],[-7.176671766717675,41.971982556700596],[-7.147871478714791,41.98066257396951],[-7.097470974709751,41.96503854288545],[-7.02907029070289,41.951150515255165],[-6.867068670686706,41.94594250489382],[-6.834668346683458,41.96330253943165],[-6.777067770677689,41.95809452907031],[-6.705067050670493,41.933790480717335],[-6.618666186661869,41.94247049798625],[-6.575465754657529,41.912958439271904],[-6.557465574655737,41.87476636328864],[-6.553865538655373,41.789702194053206],[-6.557465574655737,41.70463802481777],[-6.543065430654309,41.67165395919585],[-6.485464854648541,41.66470994538071],[-6.391863918639189,41.66470994538071],[-6.3090630906309,41.64214190048153],[-6.244262442624432,41.60221382104447],[-6.222662226622248,41.56054973815364],[-6.211862118621184,41.532773682893094],[-6.244262442624432,41.51541364835526],[-6.291062910629108,41.4546535274728],[-6.402664026640252,41.374797368598706],[-6.564665646656465,41.30362122699353],[-6.690666906669065,41.21508505085052],[-6.777067770677689,41.10745283671588],[-6.881468814688134,41.062316746917475],[-6.913869138691382,41.0380126985645],[-6.92826928269281,41.008500639850155],[-6.856268562685614,40.87830038081631],[-6.834668346683458,40.77761218049682],[-6.816668166681666,40.65435593527812],[-6.831068310683094,40.61963586620243],[-6.834668346683458,40.482491593353444],[-6.85266852668525,40.44256351391641],[-6.849068490684914,40.411315451748294],[-6.82026820268203,40.376595382672605],[-6.809468094680938,40.34361131705069],[-6.859868598685978,40.30021123070608],[-6.949869498694994,40.251603134000106],[-7.014670146701462,40.2082030476555],[-7.032670326703254,40.16827496821844],[-7.02907029070289,40.142234916411695],[-6.917469174691746,40.05717074717623],[-6.89586895868959,40.02245067810054],[-6.910269102691018,39.9373865088651],[-6.975069750697514,39.798506232562346],[-7.036270362703618,39.71344206332691],[-7.0470704707047105,39.704762046057965],[-7.119071190711907,39.68219400115879],[-7.453874538745367,39.68045799770499],[-7.536675366753656,39.66136195971336],[-7.525875258752592,39.64400192517553],[-7.446674466744668,39.53636971104089],[-7.363873638736379,39.479081597066],[-7.335073350733495,39.46519356943571],[-7.306273062730611,39.33846531730944],[-7.173071730717311,39.13535291321665],[-7.043470434704346,39.107576857956104],[-6.99666996669967,39.057232757796356],[-7.007470074700734,38.98605661619118],[-7.0470704707047105,38.906200457317084],[-7.126271262712635,38.82634429844299],[-7.219872198721987,38.7707921879219],[-7.281072810728091,38.71524007740078],[-7.284672846728455,38.64927194615697],[-7.306273062730611,38.56767978382911],[-7.335073350733495,38.5017116525853],[-7.342273422734223,38.456575562786895],[-7.10467104671045,38.18055101363515],[-6.975069750697514,38.19443904126544],[-6.957069570695694,38.1874950274503],[-6.982269822698214,38.12152689620649],[-7.02187021870219,38.04514274423997],[-7.072270722707231,38.02951871315591],[-7.183871838718375,38.00695066825671],[-7.291872918729183,37.9062624679372],[-7.378273782737807,37.78647822962607],[-7.4430744307443035,37.72745411219739],[-7.5042750427504075,37.585101828987064],[-7.497074970749708,37.5243417081046],[-7.468274682746824,37.42886151814645],[-7.407074070740691,37.17887702080148],[-7.493474934749344,37.168461000078764],[-7.8354783547835325,37.00527667542302],[-7.939879398793977,37.00527667542302],[-8.137881378813773,37.07645281702818],[-8.483484834848355,37.10075686538117],[-8.598685986859863,37.12158890682659],[-8.739087390873891,37.0747168135744],[-8.8470884708847,37.07645281702818],[-8.937089370893716,37.015692696145734],[-8.99828998289982,37.03305273068358],[-8.926289262892624,37.16672499662498],[-8.814688146881451,37.430597521600234],[-8.818288182881815,37.59204584280219],[-8.793087930879295,37.732662122558736],[-8.82188821888218,37.87154239886151],[-8.879488794887948,37.95834257155073],[-8.803888038880388,38.184023020542725],[-8.811088110881116,38.30033525194628],[-8.879488794887948,38.44615954206418],[-8.667086670866695,38.42359149716498],[-8.735487354873555,38.48261561459367],[-8.800288002880023,38.51733568366936],[-8.861488614886156,38.510391669854215],[-8.915489154891532,38.51212767330799],[-9.095490954909536,38.454839559333124],[-9.185491854918553,38.437479524795265],[-9.214292142921437,38.44789554551798],[-9.203492034920345,38.53816772511476],[-9.25029250292502,38.656215959972116],[-9.178291782917825,38.68746402214023],[-9.091890918909172,38.69614403940915],[-9.019890198901976,38.746488139568925],[-8.976689766897664,38.803776253543816],[-9.001890018900184,38.90272845040951],[-8.937089370893716,38.998208640367665],[-8.793087930879295,39.07806479924176],[-8.868688686886856,39.06591277506527],[-8.955089550895508,39.01556867490552],[-9.091890918909172,38.835024315711934],[-9.135091350913513,38.74301613266135],[-9.253892538925385,38.71350407394701],[-9.35829358293583,38.69788004286295],[-9.40869408694087,38.708296063585664],[-9.473494734947337,38.730864108484866],[-9.480694806948065,38.798568243182444],[-9.473494734947337,38.852384350249764],[-9.430294302943025,38.960016564384404],[-9.415894158941597,39.11278486831745],[-9.351093510935101,39.24819313771263],[-9.35829358293583,39.28464921024212],[-9.376293762937621,39.33846531730944],[-9.318693186931853,39.39054542092299],[-9.25029250292502,39.42526548999868],[-9.14949149491494,39.543313724856006],[-9.005490054900548,39.82107427746155],[-8.836288362883636,40.11619486460492],[-8.850688506885064,40.15265093713438],[-8.886688866888676,40.178690988941156],[-8.87228872288722,40.25854714781525],[-8.77148771487714,40.60574783857214],[-8.731887318873191,40.65088392837055],[-8.685086850868515,40.75330813214384],[-8.674286742867423,40.916492456799574],[-8.656286562865631,41.029332681295585],[-8.659886598865995,41.08662079527048],[-8.674286742867423,41.154324929968055],[-8.739087390873891,41.2845251890019],[-8.803888038880388,41.56054973815364],[-8.811088110881116,41.65255792120422],[-8.757087570875711,41.697694011002625],[-8.8470884708847,41.70463802481777],[-8.886688866888676,41.76539814570023],[-8.879488794887948,41.83136627694404],[-8.778687786877867,41.94073449453245]]],[[[-25.02565025650256,36.96014058562463],[-25.032850328503287,36.941044547633],[-25.08685086850869,36.94972456490191],[-25.158851588515887,36.942780551086784],[-25.198451984519835,36.996596658154104],[-25.16245162451625,37.01916470305329],[-25.083250832508327,37.02437271341465],[-25.04365043650435,37.00006866506166],[-25.02565025650256,36.96014058562463]]],[[[-31.138511385113844,39.40616945200705],[-31.181711817118156,39.359297358754844],[-31.257312573125716,39.3766573932927],[-31.282512825128236,39.39401742783053],[-31.26091260912608,39.49644163160383],[-31.199711997119977,39.5207456799568],[-31.138511385113844,39.479081597066],[-31.138511385113844,39.40616945200705]]],[[[-27.074070740707413,38.64406393579563],[-27.09567095670957,38.63364791507291],[-27.30447304473043,38.66142397033346],[-27.362073620736197,38.69788004286295],[-27.387273872738717,38.765584177560555],[-27.351273512735133,38.78815222245973],[-27.261272612726117,38.802040250090016],[-27.12807128071279,38.78988822591353],[-27.041670416704164,38.74128012920755],[-27.041670416704164,38.67878400487132],[-27.074070740707413,38.64406393579563]]],[[[-27.779677796777975,38.55552775965262],[-27.82647826478265,38.54337573547613],[-28.09288092880928,38.619759887442655],[-28.18648186481863,38.656215959972116],[-28.308883088830896,38.744752136115125],[-27.963279632796315,38.637119921980485],[-27.779677796777975,38.55552775965262]]],[[[-28.640086400863993,38.5242796974845],[-28.744487444874437,38.5225436940307],[-28.841688416884153,38.598927845997224],[-28.69768697686976,38.638855925434285],[-28.65448654486545,38.61455187708128],[-28.625686256862565,38.58677582182074],[-28.60408604086041,38.55031974929125],[-28.640086400863993,38.5242796974845]]],[[[-28.146881468814684,38.45310355587932],[-28.064080640806395,38.41317547644229],[-28.190081900818996,38.40449545917335],[-28.229682296822972,38.38539942118172],[-28.334083340833416,38.41317547644229],[-28.45288452884529,38.40796746608092],[-28.532085320853213,38.46178357314824],[-28.550085500855005,38.51907168712313],[-28.510485104851057,38.55379175619882],[-28.40248402484025,38.55379175619882],[-28.146881468814684,38.45310355587932]]],[[[-25.648456484564832,37.84029433669339],[-25.58725587255873,37.833350322878246],[-25.266852668526667,37.848974353962305],[-25.180451804518043,37.838558333239604],[-25.191251912519107,37.76391018472687],[-25.25245252452524,37.73439812601252],[-25.439654396543972,37.71530208802089],[-25.734857348573485,37.76217418127308],[-25.8320583205832,37.8264063090631],[-25.84645846458463,37.87327840231529],[-25.84645846458463,37.89411044376071],[-25.785257852578525,37.911470478298554],[-25.648456484564832,37.84029433669339]]]]}}